FLOCK 4BE-14            
1 60517U 24149BB  25333.17679629  .00017023  00000+0  52216-3 0  9993
2 60517  97.3902  51.0573 0003859 292.2190  67.8643 15.33822497 71592
FLOCK 4BE-1             
1 60518U 24149BC  25333.81293669  .00017805  00000+0  53183-3 0  9993
2 60518  97.3976  52.3825 0003622 286.2465  73.8380 15.34655930 71710
FLOCK 4BE-28            
1 60519U 24149BD  25334.01496299  .00021905  00000+0  62557-3 0  9992
2 60519  97.3938  52.8069 0003693 290.1292  69.9554 15.36026122 71776
IPERDRONE.0             
1 60520U 24149BE  25334.14623647  .00038857  00000+0  81818-3 0  9992
2 60520  97.3964  55.9515 0003202 247.0638 113.0273 15.45172843 71982
2024-149BF              
1 60521U 24149BF  25334.17956742  .00048758  00000+0  94318-3 0  9991
2 60521  97.3980  56.6221 0003087 259.9991 100.0910 15.47599478 72027
CONNECTA IOT-2          
1 60522U 24149BG  25334.17906369  .00006890  00000+0  30008-3 0  9999
2 60522  97.4039  50.4214 0005620 312.8568  47.2196 15.22514026 71602
PTD-R (TYVAK-0127)      
1 60523U 24149BH  25333.50358698  .00040403  00000+0  66884-3 0  9991
2 60523  97.3933  57.8579 0002686 260.7865  99.3084 15.52079578 72066
CONNECTA IOT-4          
1 60524U 24149BJ  25333.18842751  .00018222  00000+0  54950-3 0  9999
2 60524  97.3979  51.1860 0005025 288.7089  71.3608 15.34343481 71580
