{
  "type": "FeatureCollection",
  "features": [
    {
      "type": "Feature",
      "properties": {
        "OBJECT_NAME": "FLOCK 4BE-14",
        "OBJECT_ID": "2024-149BB",
        "EPOCH": "2025-11-29T04:14:35.199456",
        "MEAN_MOTION": 15.33822497,
        "ECCENTRICITY": 0.00038598,
        "INCLINATION": 97.3902,
        "RA_OF_ASC_NODE": 51.0573,
        "ARG_OF_PERICENTER": 292.219,
        "MEAN_ANOMALY": 67.8643,
        "EPHEMERIS_TYPE": 0,
        "CLASSIFICATION_TYPE": "U",
        "NORAD_CAT_ID": 60517,
        "ELEMENT_SET_NO": 999,
        "REV_AT_EPOCH": 7159,
        "BSTAR": 0.00052215633,
        "MEAN_MOTION_DOT": 0.00017023,
        "MEAN_MOTION_DDOT": 0,
        "norad_id": 60517,
        "name": "FLOCK 4BE-14",
        "group": "active",
        "longitude_deg": NaN,
        "latitude_deg": NaN,
        "alt_km": NaN,
        "orbit_class": "HEO",
        "timestamp": "2025-11-30T09:33:02.559772+00:00"
      },
      "geometry": {
        "type": "Point",
        "coordinates": [
          NaN,
          NaN
        ]
      }
    },
    {
      "type": "Feature",
      "properties": {
        "OBJECT_NAME": "FLOCK 4BE-1",
        "OBJECT_ID": "2024-149BC",
        "EPOCH": "2025-11-29T19:30:37.730016",
        "MEAN_MOTION": 15.3465593,
        "ECCENTRICITY": 0.0003622,
        "INCLINATION": 97.3976,
        "RA_OF_ASC_NODE": 52.3825,
        "ARG_OF_PERICENTER": 286.2465,
        "MEAN_ANOMALY": 73.838,
        "EPHEMERIS_TYPE": 0,
        "CLASSIFICATION_TYPE": "U",
        "NORAD_CAT_ID": 60518,
        "ELEMENT_SET_NO": 999,
        "REV_AT_EPOCH": 7171,
        "BSTAR": 0.00053183,
        "MEAN_MOTION_DOT": 0.00017805,
        "MEAN_MOTION_DDOT": 0,
        "norad_id": 60518,
        "name": "FLOCK 4BE-1",
        "group": "active",
        "longitude_deg": NaN,
        "latitude_deg": NaN,
        "alt_km": NaN,
        "orbit_class": "HEO",
        "timestamp": "2025-11-30T09:33:02.559780+00:00"
      },
      "geometry": {
        "type": "Point",
        "coordinates": [
          NaN,
          NaN
        ]
      }
    },
    {
      "type": "Feature",
      "properties": {
        "OBJECT_NAME": "FLOCK 4BE-28",
        "OBJECT_ID": "2024-149BD",
        "EPOCH": "2025-11-30T00:21:32.802336",
        "MEAN_MOTION": 15.36026122,
        "ECCENTRICITY": 0.0003693,
        "INCLINATION": 97.3938,
        "RA_OF_ASC_NODE": 52.8069,
        "ARG_OF_PERICENTER": 290.1292,
        "MEAN_ANOMALY": 69.9554,
        "EPHEMERIS_TYPE": 0,
        "CLASSIFICATION_TYPE": "U",
        "NORAD_CAT_ID": 60519,
        "ELEMENT_SET_NO": 999,
        "REV_AT_EPOCH": 7177,
        "BSTAR": 0.00062557,
        "MEAN_MOTION_DOT": 0.00021905,
        "MEAN_MOTION_DDOT": 0,
        "norad_id": 60519,
        "name": "FLOCK 4BE-28",
        "group": "active",
        "longitude_deg": NaN,
        "latitude_deg": NaN,
        "alt_km": NaN,
        "orbit_class": "HEO",
        "timestamp": "2025-11-30T09:33:02.559786+00:00"
      },
      "geometry": {
        "type": "Point",
        "coordinates": [
          NaN,
          NaN
        ]
      }
    },
    {
      "type": "Feature",
      "properties": {
        "OBJECT_NAME": "IPERDRONE.0",
        "OBJECT_ID": "2024-149BE",
        "EPOCH": "2025-11-30T03:30:34.831008",
        "MEAN_MOTION": 15.45172843,
        "ECCENTRICITY": 0.0003202,
        "INCLINATION": 97.3964,
        "RA_OF_ASC_NODE": 55.9515,
        "ARG_OF_PERICENTER": 247.0638,
        "MEAN_ANOMALY": 113.0273,
        "EPHEMERIS_TYPE": 0,
        "CLASSIFICATION_TYPE": "U",
        "NORAD_CAT_ID": 60520,
        "ELEMENT_SET_NO": 999,
        "REV_AT_EPOCH": 7198,
        "BSTAR": 0.00081818,
        "MEAN_MOTION_DOT": 0.00038857,
        "MEAN_MOTION_DDOT": 0,
        "norad_id": 60520,
        "name": "IPERDRONE.0",
        "group": "active",
        "longitude_deg": NaN,
        "latitude_deg": NaN,
        "alt_km": NaN,
        "orbit_class": "HEO",
        "timestamp": "2025-11-30T09:33:02.559792+00:00"
      },
      "geometry": {
        "type": "Point",
        "coordinates": [
          NaN,
          NaN
        ]
      }
    },
    {
      "type": "Feature",
      "properties": {
        "OBJECT_NAME": "2024-149BF",
        "OBJECT_ID": "2024-149BF",
        "EPOCH": "2025-11-30T04:18:34.625088",
        "MEAN_MOTION": 15.47599478,
        "ECCENTRICITY": 0.0003087,
        "INCLINATION": 97.398,
        "RA_OF_ASC_NODE": 56.6221,
        "ARG_OF_PERICENTER": 259.9991,
        "MEAN_ANOMALY": 100.091,
        "EPHEMERIS_TYPE": 0,
        "CLASSIFICATION_TYPE": "U",
        "NORAD_CAT_ID": 60521,
        "ELEMENT_SET_NO": 999,
        "REV_AT_EPOCH": 7202,
        "BSTAR": 0.00094318,
        "MEAN_MOTION_DOT": 0.00048758,
        "MEAN_MOTION_DDOT": 0,
        "norad_id": 60521,
        "name": "2024-149BF",
        "group": "active",
        "longitude_deg": NaN,
        "latitude_deg": NaN,
        "alt_km": NaN,
        "orbit_class": "HEO",
        "timestamp": "2025-11-30T09:33:02.559799+00:00"
      },
      "geometry": {
        "type": "Point",
        "coordinates": [
          NaN,
          NaN
        ]
      }
    },
    {
      "type": "Feature",
      "properties": {
        "OBJECT_NAME": "CONNECTA IOT-2",
        "OBJECT_ID": "2024-149BG",
        "EPOCH": "2025-11-30T04:17:51.102816",
        "MEAN_MOTION": 15.22514026,
        "ECCENTRICITY": 0.000562,
        "INCLINATION": 97.4039,
        "RA_OF_ASC_NODE": 50.4214,
        "ARG_OF_PERICENTER": 312.8568,
        "MEAN_ANOMALY": 47.2196,
        "EPHEMERIS_TYPE": 0,
        "CLASSIFICATION_TYPE": "U",
        "NORAD_CAT_ID": 60522,
        "ELEMENT_SET_NO": 999,
        "REV_AT_EPOCH": 7160,
        "BSTAR": 0.00030008,
        "MEAN_MOTION_DOT": 6.89e-05,
        "MEAN_MOTION_DDOT": 0,
        "norad_id": 60522,
        "name": "CONNECTA IOT-2",
        "group": "active",
        "longitude_deg": NaN,
        "latitude_deg": NaN,
        "alt_km": NaN,
        "orbit_class": "HEO",
        "timestamp": "2025-11-30T09:33:02.559805+00:00"
      },
      "geometry": {
        "type": "Point",
        "coordinates": [
          NaN,
          NaN
        ]
      }
    },
    {
      "type": "Feature",
      "properties": {
        "OBJECT_NAME": "PTD-R (TYVAK-0127)",
        "OBJECT_ID": "2024-149BH",
        "EPOCH": "2025-11-29T12:05:09.915072",
        "MEAN_MOTION": 15.52079578,
        "ECCENTRICITY": 0.0002686,
        "INCLINATION": 97.3933,
        "RA_OF_ASC_NODE": 57.8579,
        "ARG_OF_PERICENTER": 260.7865,
        "MEAN_ANOMALY": 99.3084,
        "EPHEMERIS_TYPE": 0,
        "CLASSIFICATION_TYPE": "U",
        "NORAD_CAT_ID": 60523,
        "ELEMENT_SET_NO": 999,
        "REV_AT_EPOCH": 7206,
        "BSTAR": 0.00066884,
        "MEAN_MOTION_DOT": 0.00040403,
        "MEAN_MOTION_DDOT": 0,
        "norad_id": 60523,
        "name": "PTD-R (TYVAK-0127)",
        "group": "active",
        "longitude_deg": NaN,
        "latitude_deg": NaN,
        "alt_km": NaN,
        "orbit_class": "HEO",
        "timestamp": "2025-11-30T09:33:02.559811+00:00"
      },
      "geometry": {
        "type": "Point",
        "coordinates": [
          NaN,
          NaN
        ]
      }
    },
    {
      "type": "Feature",
      "properties": {
        "OBJECT_NAME": "CONNECTA IOT-4",
        "OBJECT_ID": "2024-149BJ",
        "EPOCH": "2025-11-29T04:31:20.136864",
        "MEAN_MOTION": 15.34343481,
        "ECCENTRICITY": 0.00050258,
        "INCLINATION": 97.3979,
        "RA_OF_ASC_NODE": 51.186,
        "ARG_OF_PERICENTER": 288.7089,
        "MEAN_ANOMALY": 71.3608,
        "EPHEMERIS_TYPE": 0,
        "CLASSIFICATION_TYPE": "U",
        "NORAD_CAT_ID": 60524,
        "ELEMENT_SET_NO": 999,
        "REV_AT_EPOCH": 7158,
        "BSTAR": 0.0005495049,
        "MEAN_MOTION_DOT": 0.00018222,
        "MEAN_MOTION_DDOT": 0,
        "norad_id": 60524,
        "name": "CONNECTA IOT-4",
        "group": "active",
        "longitude_deg": NaN,
        "latitude_deg": NaN,
        "alt_km": NaN,
        "orbit_class": "HEO",
        "timestamp": "2025-11-30T09:33:02.559819+00:00"
      },
      "geometry": {
        "type": "Point",
        "coordinates": [
          NaN,
          NaN
        ]
      }
    }
  ]
}